{
  "norad_id": 62991,
  "name": "STARLINK-11583 [DTC]",
  "history": [
    {
      "epoch": "2026-03-28T20:29:59.662464",
      "apogee_km": 359.322441808029,
      "perigee_km": 352.9658191633398,
      "latitude_deg": 33.48987122100974,
      "longitude_deg": -158.9003750400152,
      "semi_major_axis_km": 6734.281130485684,
      "eccentricity": 0.00047196,
      "inclination_deg": 43.0022,
      "raan_deg": 246.1942,
      "arg_perigee_deg": 269.9083,
      "mean_anomaly_deg": 90.1244,
      "mean_motion_rev_day": 15.70962789
    }
  ]
}